IRIDIUM 155             
1 43573U 18061E   19316.56230273  .00000080  00000-0  21680-4 0  9995
2 43573  86.3960 343.2996 0001661  79.8981 280.2402 14.34217540 68135
IRIDIUM 154             
1 43574U 18061F   19316.68282246  .00000083  00000-0  22400-4 0  9990
2 43574  86.3964 343.2688 0002509  92.4805 267.6678 14.34216707 68190
IRIDIUM 163             
1 43575U 18061G   19316.66378125  .00000085  00000-0  23141-4 0  9996
2 43575  86.3961 343.2651 0002299 110.8270 249.3172 14.34219581 68161
IRIDIUM 156             
1 43576U 18061H   19316.49887068  .00000102  00000-0  29467-4 0  9996
2 43576  86.3962 343.3385 0001840  99.8110 260.3294 14.34216315 68124
IRIDIUM 164             
1 43577U 18061J   19316.89845594  .00000039  00000-0  70325-5 0  9998
2 43577  86.3962 343.1753 0002396  95.1116 265.0353 14.34215704 68235
IRIDIUM 159             
1 43578U 18061K   19317.49466008  .00000083  00000-0  22480-4 0  9992
2 43578  86.3960 342.9132 0002375  93.0430 267.1037 14.34217433 68283
IRIDIUM 180             
1 43922U 19002A   19316.86625450  .00000052  00000-0  11382-4 0  9994
2 43922  86.3943 279.9694 0003370  97.8294 262.3285 14.34217451 43808
IRIDIUM 176             
1 43923U 19002B   19316.45144865  .00000116  00000-0  14492-4 0  9992
2 43923  86.6078 280.1611 0002396  93.0769 267.0722 14.72254197 44850
IRIDIUM 168             
1 43924U 19002C   19316.85990373  .00000045  00000-0  91101-5 0  9994
2 43924  86.3946 279.9811 0002573  87.6268 272.5222 14.34217259 43783
IRIDIUM 173             
1 43925U 19002D   19317.47511126  .00000099  00000-0  28212-4 0  9990
2 43925  86.3944 279.7104 0002407  87.5687 272.5784 14.34215034 43866
IRIDIUM 169             
1 43926U 19002E   19317.50930908  .00000064  00000-0  14499-4 0  9992
2 43926  86.8947 311.0380 0004171   8.8325 351.2946 14.38637886 44072
IRIDIUM 172             
1 43927U 19002F   19317.46879342  .00000059  00000-0  13970-4 0  9999
2 43927  86.3944 279.7135 0002573  89.6144 270.5346 14.34217019 43864
IRIDIUM 175             
1 43928U 19002G   19317.46474608  .00000127  00000-0  16215-4 0  9997
2 43928  86.6064 279.6718 0001646  66.3140 293.8250 14.72255302 44991
IRIDIUM 171             
1 43929U 19002H   19317.51952840  .00000051  00000-0  11249-4 0  9991
2 43929  86.3953 279.7311 0002516  86.4373 273.7110 14.34218220 43867
IRIDIUM 170             
1 43930U 19002J   19317.47714572  .00000124  00000-0  15787-4 0  9998
2 43930  86.6079 279.7395 0002055  92.3790 267.7662 14.72253924 45016
IRIDIUM 167             
1 43931U 19002K   19317.51317276  .00000054  00000-0  12199-4 0  9990
2 43931  86.3945 279.6961 0003232  93.4482 266.7084 14.34219017 43863
